{"type": "FeatureCollection", "features": [ {"type": "Feature", "properties": {"norad_id": 30121, "name": "FENGYUN 1C DEB", "group": "fengyun-1c-debris", "lat": -36.24773341377129, "lon": 28.864945059456897, "alt_km": 786.3086483715297, "timestamp": "2025-12-20T22:39:10.900649+00:00", "meta": {"OBJECT_NAME": "FENGYUN 1C DEB", "OBJECT_ID": "1999-025SA", "EPOCH": "2025-12-20T01:16:15.398400", "MEAN_MOTION": 14.40081485, "ECCENTRICITY": 0.0030761, "INCLINATION": 102.1642, "RA_OF_ASC_NODE": 18.5053, "ARG_OF_PERICENTER": 146.6968, "MEAN_ANOMALY": 239.7008, "EPHEMERIS_TYPE": 0, "CLASSIFICATION_TYPE": "U", "NORAD_CAT_ID": 30121, "ELEMENT_SET_NO": 999, "REV_AT_EPOCH": 97645, "BSTAR": 0.0013389367, "MEAN_MOTION_DOT": 4.174e-05, "MEAN_MOTION_DDOT": 0}, "tle": {"line1": "1 30121U 99025SA  25354.05295600  .00004174  00000+0  13389-2 0  9999", "line2": "2 30121 102.1642  18.5053 0030761 146.6968 239.7008 14.40081485976459"}}, "geometry": {"type": "Point", "coordinates": [28.864945059456897, -36.24773341377129]}}, {"type": "Feature", "properties": {"norad_id": 30123, "name": "FENGYUN 1C DEB", "group": "fengyun-1c-debris", "lat": 39.876710482849546, "lon": -72.12585819773548, "alt_km": 645.3358227444223, "timestamp": "2025-12-20T22:39:10.900659+00:00", "meta": {"OBJECT_NAME": "FENGYUN 1C DEB", "OBJECT_ID": "1999-025SC", "EPOCH": "2025-12-20T02:15:50.498208", "MEAN_MOTION": 14.26039202, "ECCENTRICITY": 0.02307741, "INCLINATION": 96.9272, "RA_OF_ASC_NODE": 293.0304, "ARG_OF_PERICENTER": 62.5535, "MEAN_ANOMALY": 299.8913, "EPHEMERIS_TYPE": 0, "CLASSIFICATION_TYPE": "U", "NORAD_CAT_ID": 30123, "ELEMENT_SET_NO": 999, "REV_AT_EPOCH": 97352, "BSTAR": 0.0011466155, "MEAN_MOTION_DOT": 3.594e-05, "MEAN_MOTION_DDOT": 0}, "tle": {"line1": "1 30123U 99025SC  25354.09433447  .00003594  00000+0  11466-2 0  9997", "line2": "2 30123  96.9272 293.0304 0230774  62.5535 299.8913 14.26039202973522"}}, "geometry": {"type": "Point", "coordinates": [-72.12585819773548, 39.876710482849546]}}, {"type": "Feature", "properties": {"norad_id": 30124, "name": "FENGYUN 1C DEB", "group": "fengyun-1c-debris", "lat": -22.35909879082168, "lon": 52.78465752510115, "alt_km": 876.0477199049192, "timestamp": "2025-12-20T22:39:10.900668+00:00", "meta": {"OBJECT_NAME": "FENGYUN 1C DEB", "OBJECT_ID": "1999-025SD", "EPOCH": "2025-12-20T02:31:20.074944", "MEAN_MOTION": 14.1425522, "ECCENTRICITY": 0.01429521, "INCLINATION": 99.1311, "RA_OF_ASC_NODE": 48.1342, "ARG_OF_PERICENTER": 85.133, "MEAN_ANOMALY": 305.7518, "EPHEMERIS_TYPE": 0, "CLASSIFICATION_TYPE": "U", "NORAD_CAT_ID": 30124, "ELEMENT_SET_NO": 999, "REV_AT_EPOCH": 97019, "BSTAR": 0.00060305037, "MEAN_MOTION_DOT": 1.225e-05, "MEAN_MOTION_DDOT": 0}, "tle": {"line1": "1 30124U 99025SD  25354.10509346  .00001225  00000+0  60305-3 0  9998", "line2": "2 30124  99.1311  48.1342 0142952  85.1330 305.7518 14.14255220970192"}}, "geometry": {"type": "Point", "coordinates": [52.78465752510115, -22.35909879082168]}}, {"type": "Feature", "properties": {"norad_id": 30125, "name": "FENGYUN 1C DEB", "group": "fengyun-1c-debris", "lat": 24.89403961443908, "lon": 89.59706939294526, "alt_km": 704.580472796988, "timestamp": "2025-12-20T22:39:10.900677+00:00", "meta": {"OBJECT_NAME": "FENGYUN 1C DEB", "OBJECT_ID": "1999-025SE", "EPOCH": "2025-12-20T05:48:20.926368", "MEAN_MOTION": 14.22686214, "ECCENTRICITY": 0.0341844, "INCLINATION": 98.724, "RA_OF_ASC_NODE": 92.9866, "ARG_OF_PERICENTER": 322.3856, "MEAN_ANOMALY": 66.2001, "EPHEMERIS_TYPE": 0, "CLASSIFICATION_TYPE": "U", "NORAD_CAT_ID": 30125, "ELEMENT_SET_NO": 999, "REV_AT_EPOCH": 97028, "BSTAR": 0.00041849, "MEAN_MOTION_DOT": 1.652e-05, "MEAN_MOTION_DDOT": 0}, "tle": {"line1": "1 30125U 99025SE  25354.24190887  .00001652  00000+0  41849-3 0  9996", "line2": "2 30125  98.7240  92.9866 0341844 322.3856  66.2001 14.22686214970283"}}, "geometry": {"type": "Point", "coordinates": [89.59706939294526, 24.89403961443908]}}, {"type": "Feature", "properties": {"norad_id": 30127, "name": "FENGYUN 1C DEB", "group": "fengyun-1c-debris", "lat": 14.783768914289416, "lon": 33.26934581619318, "alt_km": 786.584812969726, "timestamp": "2025-12-20T22:39:10.900686+00:00", "meta": {"OBJECT_NAME": "FENGYUN 1C DEB", "OBJECT_ID": "1999-025SG", "EPOCH": "2025-12-19T20:50:55.879584", "MEAN_MOTION": 14.38086406, "ECCENTRICITY": 0.00857664, "INCLINATION": 98.2057, "RA_OF_ASC_NODE": 210.0597, "ARG_OF_PERICENTER": 57.7306, "MEAN_ANOMALY": 303.2156, "EPHEMERIS_TYPE": 0, "CLASSIFICATION_TYPE": "U", "NORAD_CAT_ID": 30127, "ELEMENT_SET_NO": 999, "REV_AT_EPOCH": 97338, "BSTAR": 0.0015799385, "MEAN_MOTION_DOT": 4.956e-05, "MEAN_MOTION_DDOT": 0}, "tle": {"line1": "1 30127U 99025SG  25353.86870231  .00004956  00000+0  15799-2 0  9997", "line2": "2 30127  98.2057 210.0597 0085766  57.7306 303.2156 14.38086406973380"}}, "geometry": {"type": "Point", "coordinates": [33.26934581619318, 14.783768914289416]}}, {"type": "Feature", "properties": {"norad_id": 30128, "name": "FENGYUN 1C DEB", "group": "fengyun-1c-debris", "lat": 19.01689690202773, "lon": -10.170565779798554, "alt_km": 723.9574648341659, "timestamp": "2025-12-20T22:39:10.900695+00:00", "meta": {"OBJECT_NAME": "FENGYUN 1C DEB", "OBJECT_ID": "1999-025SH", "EPOCH": "2025-12-19T23:34:05.675232", "MEAN_MOTION": 14.46224348, "ECCENTRICITY": 0.0107521, "INCLINATION": 96.9793, "RA_OF_ASC_NODE": 351.4564, "ARG_OF_PERICENTER": 102.1722, "MEAN_ANOMALY": 313.4513, "EPHEMERIS_TYPE": 0, "CLASSIFICATION_TYPE": "U", "NORAD_CAT_ID": 30128, "ELEMENT_SET_NO": 999, "REV_AT_EPOCH": 97416, "BSTAR": 0.0015422, "MEAN_MOTION_DOT": 5.899e-05, "MEAN_MOTION_DDOT": 0}, "tle": {"line1": "1 30128U 99025SH  25353.98201013  .00005899  00000+0  15422-2 0  9997", "line2": "2 30128  96.9793 351.4564 0107521 102.1722 313.4513 14.46224348974163"}}, "geometry": {"type": "Point", "coordinates": [-10.170565779798554, 19.01689690202773]}}, {"type": "Feature", "properties": {"norad_id": 30129, "name": "FENGYUN 1C DEB", "group": "fengyun-1c-debris", "lat": 74.48820138095384, "lon": 146.39177949557038, "alt_km": 766.9642674797778, "timestamp": "2025-12-20T22:39:10.900704+00:00", "meta": {"OBJECT_NAME": "FENGYUN 1C DEB", "OBJECT_ID": "1999-025SJ", "EPOCH": "2025-12-19T09:03:29.320416", "MEAN_MOTION": 14.01591083, "ECCENTRICITY": 0.0188512, "INCLINATION": 98.0295, "RA_OF_ASC_NODE": 294.4423, "ARG_OF_PERICENTER": 73.6191, "MEAN_ANOMALY": 49.0298, "EPHEMERIS_TYPE": 0, "CLASSIFICATION_TYPE": "U", "NORAD_CAT_ID": 30129, "ELEMENT_SET_NO": 999, "REV_AT_EPOCH": 96571, "BSTAR": 0.00049411, "MEAN_MOTION_DOT": 8.39e-06, "MEAN_MOTION_DDOT": 0}, "tle": {"line1": "1 30129U 99025SJ  25353.37742269  .00000839  00000+0  49411-3 0  9999", "line2": "2 30129  98.0295 294.4423 0188512  73.6191  49.0298 14.01591083965712"}}, "geometry": {"type": "Point", "coordinates": [146.39177949557038, 74.48820138095384]}}, {"type": "Feature", "properties": {"norad_id": 30131, "name": "FENGYUN 1C DEB", "group": "fengyun-1c-debris", "lat": 30.784093026175018, "lon": 81.53967448008329, "alt_km": 833.7128060626355, "timestamp": "2025-12-20T22:39:10.900713+00:00", "meta": {"OBJECT_NAME": "FENGYUN 1C DEB", "OBJECT_ID": "1999-025SL", "EPOCH": "2025-12-19T06:14:15.010080", "MEAN_MOTION": 14.212547, "ECCENTRICITY": 0.0082519, "INCLINATION": 99.0759, "RA_OF_ASC_NODE": 85.274, "ARG_OF_PERICENTER": 140.5725, "MEAN_ANOMALY": 280.3121, "EPHEMERIS_TYPE": 0, "CLASSIFICATION_TYPE": "U", "NORAD_CAT_ID": 30131, "ELEMENT_SET_NO": 999, "REV_AT_EPOCH": 96781, "BSTAR": 0.0017582, "MEAN_MOTION_DOT": 3.92e-05, "MEAN_MOTION_DDOT": 0}, "tle": {"line1": "1 30131U 99025SL  25353.25989595  .00003920  00000+0  17582-2 0  9991", "line2": "2 30131  99.0759  85.2740 0082519 140.5725 280.3121 14.21254700967818"}}, "geometry": {"type": "Point", "coordinates": [81.53967448008329, 30.784093026175018]}}, {"type": "Feature", "properties": {"norad_id": 30132, "name": "FENGYUN 1C DEB", "group": "fengyun-1c-debris", "lat": -35.855203273359514, "lon": -44.15677101660999, "alt_km": 883.6352961844423, "timestamp": "2025-12-20T22:39:10.900722+00:00", "meta": {"OBJECT_NAME": "FENGYUN 1C DEB", "OBJECT_ID": "1999-025SM", "EPOCH": "2025-12-19T09:32:58.134048", "MEAN_MOTION": 13.94857644, "ECCENTRICITY": 0.0105674, "INCLINATION": 99.5782, "RA_OF_ASC_NODE": 307.2303, "ARG_OF_PERICENTER": 31.9911, "MEAN_ANOMALY": 93.7784, "EPHEMERIS_TYPE": 0, "CLASSIFICATION_TYPE": "U", "NORAD_CAT_ID": 30132, "ELEMENT_SET_NO": 999, "REV_AT_EPOCH": 96182, "BSTAR": 0.00045645, "MEAN_MOTION_DOT": 5.94e-06, "MEAN_MOTION_DDOT": 0}, "tle": {"line1": "1 30132U 99025SM  25353.39789507  .00000594  00000+0  45645-3 0  9994", "line2": "2 30132  99.5782 307.2303 0105674  31.9911  93.7784 13.94857644961821"}}, "geometry": {"type": "Point", "coordinates": [-44.15677101660999, -35.855203273359514]}}, {"type": "Feature", "properties": {"norad_id": 30133, "name": "FENGYUN 1C DEB", "group": "fengyun-1c-debris", "lat": -17.126214573872186, "lon": -21.59972880741127, "alt_km": 827.5648003889919, "timestamp": "2025-12-20T22:39:10.900732+00:00", "meta": {"OBJECT_NAME": "FENGYUN 1C DEB", "OBJECT_ID": "1999-025SN", "EPOCH": "2025-12-20T09:54:15.422400", "MEAN_MOTION": 14.06704009, "ECCENTRICITY": 0.00858981, "INCLINATION": 98.3237, "RA_OF_ASC_NODE": 160.4969, "ARG_OF_PERICENTER": 238.6781, "MEAN_ANOMALY": 150.6054, "EPHEMERIS_TYPE": 0, "CLASSIFICATION_TYPE": "U", "NORAD_CAT_ID": 30133, "ELEMENT_SET_NO": 999, "REV_AT_EPOCH": 96486, "BSTAR": 0.001128446, "MEAN_MOTION_DOT": 1.898e-05, "MEAN_MOTION_DDOT": 0}, "tle": {"line1": "1 30133U 99025SN  25354.41267850  .00001898  00000+0  11284-2 0  9990", "line2": "2 30133  98.3237 160.4969 0085898 238.6781 150.6054 14.06704009964867"}}, "geometry": {"type": "Point", "coordinates": [-21.59972880741127, -17.126214573872186]}}]}